{
  "type": "FeatureCollection",
  "features": [
    {
      "type": "Feature",
      "properties": {
        "norad_id": 44793,
        "name": "BEIDOU-3 M22 (C44)",
        "group": "gnss",
        "lat": -6.494010159292836,
        "lon": -58.69877773948994,
        "alt_km": 21514.638908992405,
        "timestamp": "2025-12-22T09:53:37.648307+00:00",
        "meta_object_name": "BEIDOU-3 M22 (C44)",
        "meta_object_id": "2019-078A",
        "meta_epoch": "2025-12-21T21:17:38.113152",
        "meta_mean_motion": 1.86232212,
        "meta_eccentricity": 0.0006079,
        "meta_inclination": 54.0999,
        "meta_ra_of_asc_node": 306.0653,
        "meta_arg_of_pericenter": 23.9772,
        "meta_mean_anomaly": 336.0508,
        "meta_ephemeris_type": 0,
        "meta_classification_type": "U",
        "meta_norad_cat_id": 44793,
        "meta_element_set_no": 999,
        "meta_rev_at_epoch": 4134,
        "meta_bstar": 0,
        "meta_mean_motion_dot": -5.9e-07,
        "meta_mean_motion_ddot": 0,
        "tle_line1": "1 44793U 19078A   25355.88724668 -.00000059  00000+0  00000+0 0  9994",
        "tle_line2": "2 44793  54.0999 306.0653 0006079  23.9772 336.0508  1.86232212 41344"
      },
      "geometry": {
        "type": "Point",
        "coordinates": [
          -58.69877773948994,
          -6.494010159292836
        ]
      }
    },
    {
      "type": "Feature",
      "properties": {
        "norad_id": 44794,
        "name": "BEIDOU-3 M21 (C43)",
        "group": "gnss",
        "lat": -52.78804719245027,
        "lon": -161.49932052767613,
        "alt_km": 21538.782309676724,
        "timestamp": "2025-12-22T09:53:37.648319+00:00",
        "meta_object_name": "BEIDOU-3 M21 (C43)",
        "meta_object_id": "2019-078B",
        "meta_epoch": "2025-12-22T00:36:11.320992",
        "meta_mean_motion": 1.86227906,
        "meta_eccentricity": 0.0004299,
        "meta_inclination": 54.0732,
        "meta_ra_of_asc_node": 306.0255,
        "meta_arg_of_pericenter": 12.7951,
        "meta_mean_anomaly": 347.2162,
        "meta_ephemeris_type": 0,
        "meta_classification_type": "U",
        "meta_norad_cat_id": 44794,
        "meta_element_set_no": 999,
        "meta_rev_at_epoch": 4135,
        "meta_bstar": 0,
        "meta_mean_motion_dot": -5.8e-07,
        "meta_mean_motion_ddot": 0,
        "tle_line1": "1 44794U 19078B   25356.02513103 -.00000058  00000+0  00000+0 0  9991",
        "tle_line2": "2 44794  54.0732 306.0255 0004299  12.7951 347.2162  1.86227906 41350"
      },
      "geometry": {
        "type": "Point",
        "coordinates": [
          -161.49932052767613,
          -52.78804719245027
        ]
      }
    },
    {
      "type": "Feature",
      "properties": {
        "norad_id": 44850,
        "name": "COSMOS 2544 (759)",
        "group": "gnss",
        "lat": -40.66113946057281,
        "lon": -77.29290107231951,
        "alt_km": 19101.726766607997,
        "timestamp": "2025-12-22T09:53:37.648330+00:00",
        "meta_object_name": "COSMOS 2544 (759)",
        "meta_object_id": "2019-088A",
        "meta_epoch": "2025-12-22T02:49:35.422176",
        "meta_mean_motion": 2.13102165,
        "meta_eccentricity": 0.0014312,
        "meta_inclination": 65.4645,
        "meta_ra_of_asc_node": 79.6449,
        "meta_arg_of_pericenter": 250.3028,
        "meta_mean_anomaly": 109.5843,
        "meta_ephemeris_type": 0,
        "meta_classification_type": "U",
        "meta_norad_cat_id": 44850,
        "meta_element_set_no": 999,
        "meta_rev_at_epoch": 4694,
        "meta_bstar": 0,
        "meta_mean_motion_dot": -3e-08,
        "meta_mean_motion_ddot": 0,
        "tle_line1": "1 44850U 19088A   25356.11777109 -.00000003  00000+0  00000+0 0  9993",
        "tle_line2": "2 44850  65.4645  79.6449 0014312 250.3028 109.5843  2.13102165 46947"
      },
      "geometry": {
        "type": "Point",
        "coordinates": [
          -77.29290107231951,
          -40.66113946057281
        ]
      }
    },
    {
      "type": "Feature",
      "properties": {
        "norad_id": 44864,
        "name": "BEIDOU-3 M19 (C41)",
        "group": "gnss",
        "lat": 56.03977141137528,
        "lon": 168.36496842339466,
        "alt_km": 21571.868305568067,
        "timestamp": "2025-12-22T09:53:37.648346+00:00",
        "meta_object_name": "BEIDOU-3 M19 (C41)",
        "meta_object_id": "2019-090A",
        "meta_epoch": "2025-12-21T08:18:55.694880",
        "meta_mean_motion": 1.86231675,
        "meta_eccentricity": 0.00183109,
        "meta_inclination": 56.3999,
        "meta_ra_of_asc_node": 68.6763,
        "meta_arg_of_pericenter": 285.0239,
        "meta_mean_anomaly": 175.8266,
        "meta_ephemeris_type": 0,
        "meta_classification_type": "U",
        "meta_norad_cat_id": 44864,
        "meta_element_set_no": 999,
        "meta_rev_at_epoch": 4092,
        "meta_bstar": 0,
        "meta_mean_motion_dot": -3.6e-07,
        "meta_mean_motion_ddot": 0,
        "tle_line1": "1 44864U 19090A   25355.34647795 -.00000036  00000+0  00000+0 0  9998",
        "tle_line2": "2 44864  56.3999  68.6763 0018310 285.0239 175.8266  1.86231675 40926"
      },
      "geometry": {
        "type": "Point",
        "coordinates": [
          168.36496842339466,
          56.03977141137528
        ]
      }
    },
    {
      "type": "Feature",
      "properties": {
        "norad_id": 44865,
        "name": "BEIDOU-3 M20 (C42)",
        "group": "gnss",
        "lat": -4.031084925489635,
        "lon": -108.62425473542802,
        "alt_km": 21545.19029282408,
        "timestamp": "2025-12-22T09:53:37.648357+00:00",
        "meta_object_name": "BEIDOU-3 M20 (C42)",
        "meta_object_id": "2019-090B",
        "meta_epoch": "2025-12-22T03:27:20.583072",
        "meta_mean_motion": 1.86231562,
        "meta_eccentricity": 0.0015475,
        "meta_inclination": 56.4023,
        "meta_ra_of_asc_node": 68.6841,
        "meta_arg_of_pericenter": 297.2268,
        "meta_mean_anomaly": 67.9266,
        "meta_ephemeris_type": 0,
        "meta_classification_type": "U",
        "meta_norad_cat_id": 44865,
        "meta_element_set_no": 999,
        "meta_rev_at_epoch": 4092,
        "meta_bstar": 0,
        "meta_mean_motion_dot": -3e-07,
        "meta_mean_motion_ddot": 0,
        "tle_line1": "1 44865U 19090B   25356.14398823 -.00000030  00000+0  00000+0 0  9997",
        "tle_line2": "2 44865  56.4023  68.6841 0015475 297.2268  67.9266  1.86231562 40925"
      },
      "geometry": {
        "type": "Point",
        "coordinates": [
          -108.62425473542802,
          -4.031084925489635
        ]
      }
    },
    {
      "type": "Feature",
      "properties": {
        "norad_id": 45344,
        "name": "BEIDOU-3 G2 (C60)",
        "group": "gnss",
        "lat": -2.520734243805565,
        "lon": -40.320417994282266,
        "alt_km": 35779.61396349265,
        "timestamp": "2025-12-22T09:53:37.648369+00:00",
        "meta_object_name": "BEIDOU-3 G2 (C60)",
        "meta_object_id": "2020-017A",
        "meta_epoch": "2025-12-19T13:38:45.370752",
        "meta_mean_motion": 1.00273166,
        "meta_eccentricity": 0.0002079,
        "meta_inclination": 2.5096,
        "meta_ra_of_asc_node": 44.0024,
        "meta_arg_of_pericenter": 233.0917,
        "meta_mean_anomaly": 96.0359,
        "meta_ephemeris_type": 0,
        "meta_classification_type": "U",
        "meta_norad_cat_id": 45344,
        "meta_element_set_no": 999,
        "meta_rev_at_epoch": 2145,
        "meta_bstar": 0,
        "meta_mean_motion_dot": -1.18e-06,
        "meta_mean_motion_ddot": 0,
        "tle_line1": "1 45344U 20017A   25353.56858068 -.00000118  00000+0  00000+0 0  9993",
        "tle_line2": "2 45344   2.5096  44.0024 0002079 233.0917  96.0359  1.00273166 21451"
      },
      "geometry": {
        "type": "Point",
        "coordinates": [
          -40.320417994282266,
          -2.520734243805565
        ]
      }
    },
    {
      "type": "Feature",
      "properties": {
        "norad_id": 45358,
        "name": "COSMOS 2545 (760)",
        "group": "gnss",
        "lat": 60.946709344457766,
        "lon": 17.924323349120133,
        "alt_km": 19152.177661302656,
        "timestamp": "2025-12-22T09:53:37.648380+00:00",
        "meta_object_name": "COSMOS 2545 (760)",
        "meta_object_id": "2020-018A",
        "meta_epoch": "2025-12-20T21:44:12.708096",
        "meta_mean_motion": 2.13102664,
        "meta_eccentricity": 0.00114269,
        "meta_inclination": 64.4648,
        "meta_ra_of_asc_node": 318.6832,
        "meta_arg_of_pericenter": 250.0027,
        "meta_mean_anomaly": 109.8672,
        "meta_ephemeris_type": 0,
        "meta_classification_type": "U",
        "meta_norad_cat_id": 45358,
        "meta_element_set_no": 999,
        "meta_rev_at_epoch": 4486,
        "meta_bstar": 0,
        "meta_mean_motion_dot": -5e-07,
        "meta_mean_motion_ddot": 0,
        "tle_line1": "1 45358U 20018A   25354.90570264 -.00000050  00000+0  00000+0 0  9992",
        "tle_line2": "2 45358  64.4648 318.6832 0011426 250.0027 109.8672  2.13102664 44860"
      },
      "geometry": {
        "type": "Point",
        "coordinates": [
          17.924323349120133,
          60.946709344457766
        ]
      }
    }
  ]
}